ONEWEB-0080             
1 45426U 20020C   25230.82921951 -.00000151  00000+0 -46221-3 0  9990
2 45426  87.8788  81.3161 0001716  71.9964 288.1350 13.11414815263074
ONEWEB-0090             
1 45427U 20020D   25230.84871209 -.00000462  00000+0 -13385-2 0  9992
2 45427  87.8787  81.3137 0001681  83.1425 276.9894 13.11417142263046
ONEWEB-0081             
1 45429U 20020F   25230.86227757 -.00000010  00000+0 -65052-4 0  9998
2 45429  87.8786  81.3118 0001953  81.8836 278.2514 13.11420189263116
ONEWEB-0069             
1 45430U 20020G   25230.85125394 -.00000485  00000+0 -14043-2 0  9991
2 45430  87.8792  81.3076 0001845  84.9077 275.2261 13.11417424263045
ONEWEB-0031             
1 45431U 20020H   25230.82328076  .00000105  00000+0  26148-3 0  9998
2 45431  87.8785  81.3425 0001505  80.3064 279.8234 13.11413776263029
ONEWEB-0027             
1 45432U 20020J   25230.92804048  .00000066  00000+0  13783-3 0  9995
2 45432  87.9032  65.9827 0001370  92.4478 267.6811 13.17648409266559
ONEWEB-0064             
1 45433U 20020K   25230.82158549  .00000209  00000+0  55477-3 0  9998
2 45433  87.8782  81.3342 0001548  84.0586 276.0718 13.11413960263057
